     2              NAVIGATION DATA                         RINEX VERSION / TYPE
CCRINEXN V1.6.0 UX  CDDIS               29-SEP-17 17:31     PGM / RUN BY / DATE 
IGS BROADCAST EPHEMERIS FILE                                COMMENT             
    0.1304D-07  0.1490D-07 -0.5960D-07 -0.1192D-06          ION ALPHA           
    0.1024D+06  0.6554D+05 -0.1966D+06 -0.2621D+06          ION BETA            
   -0.931322574615D-09-0.177635683940D-14   589824     1968 DELTA-UTC: A0,A1,T,W
    18                                                      LEAP SECONDS        
                                                            END OF HEADER       
10 17  9 28 14  0  0.0 0.760289840400D-04 0.932232069317D-11 0.000000000000D+00
    0.160000000000D+02-0.821875000000D+01 0.463197865479D-08-0.468447664680D+00
   -0.629574060440D-06 0.279622594826D-02 0.845454633236D-05 0.515366799355D+04
    0.396000000000D+06 0.912696123123D-07 0.267455758407D+01 0.502914190292D-07
    0.960580792297D+00 0.218187500000D+03-0.286087124064D+01-0.802319134098D-08
    0.264296723305D-10 0.100000000000D+01 0.196800000000D+04 0.000000000000D+00
    0.200000000000D+01 0.000000000000D+00 0.186264514923D-08 0.160000000000D+02
    0.388800000000D+06 0.400000000000D+01 0.000000000000D+00 0.000000000000D+00
11 17  9 28 14  0  0.0-0.718261115253D-03-0.216004991671D-11 0.000000000000D+00
    0.110000000000D+02-0.761562500000D+02 0.610561157188D-08 0.936120851751D+00
   -0.413507223129D-05 0.170687584905D-01 0.644102692604D-05 0.515373333740D+04
    0.396000000000D+06-0.230967998505D-06 0.122441990093D+01-0.270083546638D-06
    0.902126797591D+00 0.228718750000D+03 0.170016258655D+01-0.907287756036D-08
    0.271439884458D-10 0.100000000000D+01 0.196800000000D+04 0.000000000000D+00
    0.200000000000D+01 0.000000000000D+00-0.121071934700D-07 0.110000000000D+02
    0.000000000000D+00 0.000000000000D+00 0.000000000000D+00 0.000000000000D+00
12 17  9 28 14  0  0.0 0.371161848307D-03-0.136424205266D-11 0.000000000000D+00
    0.170000000000D+02 0.356875000000D+02 0.395195032888D-08 0.306311321656D+00
    0.169686973095D-05 0.654080673121D-02 0.600330531597D-05 0.515371443939D+04
    0.396000000000D+06-0.391155481338D-07-0.404118090649D+00 0.135973095894D-06
    0.988646708875D+00 0.283156250000D+03 0.913225743472D+00-0.794497379719D-08
    0.985755346381D-10 0.100000000000D+01 0.196800000000D+04 0.000000000000D+00
    0.200000000000D+01 0.000000000000D+00-0.125728547573D-07 0.170000000000D+02
    0.389970000000D+06 0.400000000000D+01 0.000000000000D+00 0.000000000000D+00
13 17  9 28 14  0  0.0-0.920509919524D-04-0.568434188608D-12 0.000000000000D+00
    0.118000000000D+03 0.132812500000D+02 0.432053711057D-08 0.216162994785D+01
    0.711530447006D-06 0.351314048748D-02 0.769272446632D-05 0.515365620422D+04
    0.396000000000D+06 0.651925802231D-07-0.244194840294D+01 0.372529029846D-07
    0.969314895993D+00 0.234812500000D+03 0.173210267886D+01-0.788139972050D-08
   -0.171078554680D-09 0.100000000000D+01 0.196800000000D+04 0.000000000000D+00
    0.200000000000D+01 0.000000000000D+00-0.111758708954D-07 0.118000000000D+03
    0.388800000000D+06 0.400000000000D+01 0.000000000000D+00 0.000000000000D+00
14 17  9 28 14  0  0.0-0.848704949021D-04-0.102318153950D-11 0.000000000000D+00
    0.130000000000D+03 0.171562500000D+02 0.444589947527D-08-0.285154181853D+01
    0.990927219391D-06 0.932781270239D-02 0.753626227379D-05 0.515369508362D+04
    0.396000000000D+06 0.894069671631D-07-0.248223560737D+01-0.521540641785D-07
    0.961869656772D+00 0.233562500000D+03-0.194729225073D+01-0.779353891789D-08
   -0.157149403046D-09 0.100000000000D+01 0.196800000000D+04 0.000000000000D+00
    0.200000000000D+01 0.000000000000D+00-0.977888703346D-08 0.130000000000D+03
    0.388800000000D+06 0.400000000000D+01 0.000000000000D+00 0.000000000000D+00
16 17  9 28 14  0  0.0 0.370033085346D-04 0.000000000000D+00 0.000000000000D+00
    0.142000000000D+03 0.478125000000D+02 0.389516224914D-08-0.165877816430D+01
    0.220909714699D-05 0.930674932897D-02 0.569410622120D-05 0.515376947022D+04
    0.396000000000D+06 0.540167093277D-07-0.385248101987D+00-0.163912773132D-06
    0.989116108085D+00 0.280531250000D+03 0.459714021803D+00-0.783104047998D-08
    0.263582407837D-09 0.100000000000D+01 0.196800000000D+04 0.000000000000D+00
    0.200000000000D+01 0.000000000000D+00-0.107102096081D-07 0.142000000000D+03
    0.388800000000D+06 0.400000000000D+01 0.000000000000D+00 0.000000000000D+00
17 17  9 28 14  0  0.0-0.154142268002D-03 0.250111042988D-11 0.000000000000D+00
    0.120000000000D+03-0.385000000000D+02 0.419374623917D-08-0.253479712605D+01
   -0.196881592274D-05 0.118897357024D-01 0.482052564621D-05 0.515369186592D+04
    0.396000000000D+06 0.204890966415D-06 0.630842464367D+00 0.223517417908D-07
    0.981060761804D+00 0.293968750000D+03-0.184377179186D+01-0.782068276806D-08
    0.148220463681D-09 0.100000000000D+01 0.196800000000D+04 0.000000000000D+00
    0.200000000000D+01 0.000000000000D+00-0.111758708954D-07 0.120000000000D+03
    0.388830000000D+06 0.000000000000D+00 0.000000000000D+00 0.000000000000D+00
18 17  9 28 14  0  0.0 0.630441587418D-03 0.682121026330D-12 0.000000000000D+00
    0.470000000000D+02 0.312500000000D-01 0.555951729098D-08-0.105647497292D+01
    0.134110450745D-06 0.181302911369D-01 0.802986323833D-05 0.515362893868D+04
    0.396000000000D+06-0.167638063431D-06 0.262798886542D+01 0.417232513428D-06
    0.926198763485D+00 0.209281250000D+03-0.178071553294D+01-0.870036220846D-08
    0.421446141874D-10 0.100000000000D+01 0.196800000000D+04 0.000000000000D+00
    0.200000000000D+01 0.000000000000D+00-0.111758708954D-07 0.470000000000D+02
    0.388800000000D+06 0.000000000000D+00 0.000000000000D+00 0.000000000000D+00
19 17  9 28 14  0  0.0-0.483966432512D-03 0.193267624127D-11 0.000000000000D+00
    0.123000000000D+03-0.373750000000D+02 0.430589386369D-08 0.446384753442D+00
   -0.191293656826D-05 0.100006990833D-01 0.555440783501D-05 0.515367981911D+04
    0.396000000000D+06-0.109896063805D-06 0.678371773067D+00 0.502914190292D-07
    0.978375562504D+00 0.283906250000D+03 0.107571150009D+01-0.817641243600D-08
   -0.571452390616D-11 0.100000000000D+01 0.196800000000D+04 0.000000000000D+00
    0.200000000000D+01 0.000000000000D+00-0.153668224812D-07 0.123000000000D+03
    0.388830000000D+06 0.000000000000D+00 0.000000000000D+00 0.000000000000D+00
20 17  9 28 14  0  0.0 0.488041434437D-03 0.125055521494D-11 0.000000000000D+00
    0.123000000000D+03-0.478125000000D+01 0.541129674403D-08 0.275513520404D+01
   -0.234693288803D-06 0.456865690649D-02 0.788457691670D-05 0.515374022293D+04
    0.396000000000D+06 0.875443220139D-07 0.257682653279D+01-0.372529029846D-08
    0.927558425880D+00 0.208906250000D+03 0.167598394760D+01-0.837463431935D-08
    0.671456570900D-10 0.100000000000D+01 0.196800000000D+04 0.000000000000D+00
    0.200000000000D+01 0.000000000000D+00-0.838190317154D-08 0.123000000000D+03
    0.388800000000D+06 0.000000000000D+00 0.000000000000D+00 0.000000000000D+00
21 17  9 28 14  0  0.0-0.475649256259D-03 0.318323145621D-11 0.000000000000D+00
    0.200000000000D+02-0.505625000000D+02 0.518628745826D-08-0.156515250003D+00
   -0.256672501564D-05 0.239902256290D-01 0.854581594467D-05 0.515360057068D+04
    0.396000000000D+06-0.331550836563D-06 0.158789432960D+01 0.875443220139D-07
    0.940760854854D+00 0.208250000000D+03-0.163846901827D+01-0.882572476972D-08
    0.975040614355D-10 0.100000000000D+01 0.196800000000D+04 0.000000000000D+00
    0.200000000000D+01 0.000000000000D+00-0.977888703346D-08 0.200000000000D+02
    0.388800000000D+06 0.400000000000D+01 0.000000000000D+00 0.000000000000D+00
22 17  9 28 14  0  0.0-0.136994291097D-03-0.127329258248D-10 0.000000000000D+00
    0.220000000000D+02-0.534375000000D+01 0.544772671418D-08 0.310243077987D+01
   -0.288709998131D-06 0.723624031525D-02 0.800937414169D-05 0.515371626282D+04
    0.396000000000D+06 0.175088644028D-06 0.262761526832D+01-0.484287738800D-07
    0.924288672310D+00 0.201562500000D+03-0.167434248329D+01-0.830356050585D-08
    0.108218795036D-09 0.100000000000D+01 0.196800000000D+04 0.000000000000D+00
    0.200000000000D+01 0.000000000000D+00-0.176951289177D-07 0.220000000000D+02
    0.388830000000D+06 0.000000000000D+00 0.000000000000D+00 0.000000000000D+00
24 17  9 28 14  0  0.0-0.402387231588D-04-0.568434188608D-12 0.000000000000D+00
    0.150000000000D+02 0.391562500000D+02 0.478198490315D-08 0.184576716823D+01
    0.199116766453D-05 0.597905670293D-02 0.778771936894D-05 0.515367802239D+04
    0.396000000000D+06-0.782310962677D-07-0.154697527622D+01 0.558793544769D-07
    0.943786971121D+00 0.219812500000D+03 0.465418546505D+00-0.822534261854D-08
   -0.182150444440D-09 0.100000000000D+01 0.196800000000D+04 0.000000000000D+00
    0.200000000000D+01 0.000000000000D+00 0.279396772385D-08 0.150000000000D+02
    0.388800000000D+06 0.400000000000D+01 0.000000000000D+00 0.000000000000D+00
25 17  9 28 14  0  0.0-0.463771633804D-03-0.636646291241D-11 0.000000000000D+00
    0.180000000000D+02 0.387187500000D+02 0.425124868642D-08-0.124609258316D+00
    0.207871198654D-05 0.657905905973D-02 0.599771738052D-05 0.515375095177D+04
    0.396000000000D+06 0.894069671631D-07-0.460895480295D+00 0.968575477600D-07
    0.976439285096D+00 0.277281250000D+03 0.821942113028D+00-0.812248135418D-08
    0.138577205266D-09 0.100000000000D+01 0.196800000000D+04 0.000000000000D+00
    0.280000000000D+01 0.000000000000D+00 0.558793544769D-08 0.180000000000D+02
    0.388800000000D+06 0.000000000000D+00 0.000000000000D+00 0.000000000000D+00
